0 CZ-4 DEB
1 20853U 90081R   13282.76865586  .00001545  00000-0  58966-3 0  1458
2 20853 098.5386 332.7367 0026454 207.9670 289.6526 14.31996361191150
0 CZ-4 DEB
1 20853U 90081R   13286.80488161  .00001935  00000-0  73407-3 0  1479
2 20853 098.5380 336.7093 0026693 196.5299 216.7461 14.32009102191731
0 CZ-4 DEB
1 20853U 90081R   13288.83108944  .00002593  00000-0  97805-3 0  1482
2 20853 098.5382 338.7030 0026679 190.5504 222.3513 14.32020214192024
0 CZ-4 DEB
1 20853U 90081R   13291.13776987  .00002543  00000-0  95929-3 0  1498
2 20853 098.5372 340.9732 0026799 183.8755 233.8241 14.32030526192351
0 CZ-4 DEB
1 20853U 90081R   13293.45657687  .00002849  00000-0  10724-2 0  1500
2 20853 098.5367 343.2550 0026907 177.3456 307.7234 14.32040355192686
0 CZ-4 DEB
1 20853U 90081R   13295.48129205  .00003068  00000-0  11534-2 0  1510
2 20853 098.5367 345.2473 0026946 171.6685 305.5667 14.32050051192978
